[{"OBJECT_NAME":"ONEWEB-0274","OBJECT_ID":"2021-060AB","EPOCH":"2026-03-09T21:53:58.822368","MEAN_MOTION":13.16593541,"ECCENTRICITY":0.00013385,"INCLINATION":87.8994,"RA_OF_ASC_NODE":248.5411,"ARG_OF_PERICENTER":103.9093,"MEAN_ANOMALY":256.2187,"EPHEMERIS_TYPE":0,"CLASSIFICATION_TYPE":"U","NORAD_CAT_ID":48992,"ELEMENT_SET_NO":999,"REV_AT_EPOCH":22656,"BSTAR":-0.00024860459,"MEAN_MOTION_DOT":-8.2e-7,"MEAN_MOTION_DDOT":0},{"OBJECT_NAME":"OPS 4682 DEB","OBJECT_ID":"1965-027C","EPOCH":"2026-03-09T22:01:35.411808","MEAN_MOTION":13.22363751,"ECCENTRICITY":0.00362446,"INCLINATION":90.2606,"RA_OF_ASC_NODE":25.0203,"ARG_OF_PERICENTER":89.1257,"MEAN_ANOMALY":271.4031,"EPHEMERIS_TYPE":0,"CLASSIFICATION_TYPE":"U","NORAD_CAT_ID":1316,"ELEMENT_SET_NO":999,"REV_AT_EPOCH":90588,"BSTAR":0.0024977229,"MEAN_MOTION_DOT":1.052e-5,"MEAN_MOTION_DDOT":0}]
